fname,lname,add1,add2,city,state,zip,country,Office Location
Ross,Little,1 Thielman Drive,Apartment 4-A,Buffalo,NY,14206,USA,Pitt Office
Gordon,Rivera,2 South College Drive,Suite 100,Santa Maria,CA,93454,USA,SF Office
Kristin,Meemken,3 Washington Ave N,,Minneapolis,MN,55411-3422,USA,Chicago Office
Charlie,Pettygrove,4 American Pl,Fifth Floor,Gordonsville,VA,22942,USA,DC Office
Rosemary,Bundscho,5 Lockhaven Dr.,,Houston,TX,77073,USA,Houston Office
Barry,Hockenberry,6 Mullberry Lane,,Berryville,VA,45632,USA,Maryland Office
Joan,Heron,7 E. Randolph St.,,Chicago,IL,60601,USA,Chicago Office
Charles,Garber,8 SE 4th St,,Boca Raton,FL,33432-6013,USA,Ft. Laud Office
Steve,Reed,9 S. Valley Highway,Suite 400,Englewood,CO,80112-5806,USA,Colorado Springs Office
Michael,Hurtado,10 Martin Road,Suite 400,Englewood,CO,80112-5806,USA,Colorado Springs Office
Marni,Slayton,11 Bartlett St,Suite 400,Englewood,CO,80112-5806,USA,Colorado Springs Office
Matt,Smith,12 S. Wheeling Rd.,Suite 400,Englewood,CO,80112-5806,USA,Colorado Springs Office
Cecylia,Lukasik,13 Marcus Dr,,Boca Raton,FL,33432-6013,USA,Ft. Laud Office
Patrick,Fallon,14 Quality Drive,,Marlborough,MA,01752-3025,USA,Boston Office
Frankie,Gray,15 Majors Road Suite 100,,Wheeling,IL,60090,USA,Chicago Office
Dylan,Moller,16 Camino Ramon,,Wheeling,IL,60090,USA,Chicago Office
Glenn,Grendinski,17 Technology Dr,,Wheeling,IL,60090,USA,Chicago Office
Ray,Amedeo,18 King Street,,Melville,NY,11747,USA,Brooklyn Office
Greg,Kelley,19 Perimeter Summit Blvd.,Suite 207,Arkansas City,KS,56794,USA,Missouri Office
Marilyn,Tiernan,20 East Main Street,,Rancho Cordova,CA,95670,USA,OC Office
Tim,Bauer,21 Bernhardt Street,,Cumming,GA,30041,USA,Georgia Office
Bob,Pellegrino,22 Powers Blvd,No. 5A,Northport,NY,45621,USA,Brooklyn Office
Joyce,Allison,23 Wyandanch Ave,,San Ramon,CA,94583,USA,Westwood Office
Jeff,McDermott,24 Wyandanch Ave,,Canonsburg,PA,15317-9583,USA,Pitt Office
Steve,Guidas,25 Lind Avenue SW,Suite 23,Canonsburg,PA,15317-9583,USA,Pitt Office
Wayne,LaFemme,26 Main Street,,Littleton,MA,1460,USA,Boston Office
Allie,Febbraro,27 McFarland Drive,,Trenton,NJ,08650-0116,USA,NYC Office
John,Cobb,28 Wayzata Blvd.,,Atlanta,GA,30319,USA,Georgia Office
Dennis,Sharp,29 East State St,,Denver,CO,76584,USA,Denver Office
Harold,Stickney,30 North Street,,Branford,CT,6405,USA,Conn Office
Paula,Garcia,31 Gateway Park Blvd.,Room 52,Hayward,CA,94545,USA,Westwood Office
Carrie,Wicka,32 Calvary Street,,Chanhassen,MN,55317-9326,USA,Chicago Office
Karen,Goldberg,33 N Commerce Ave,Jefferson Building,Wyandanch,NY,11798-4441,USA,NYC Office
Sheila,Barbaria,34 Nationwide Plaza,,Wyandanch,NY,11798-4441,USA,NYC Office
Dick,Ehrig,35 J Street,Mailstop 34F,Renton,WA,98055,USA,SF Office
John,Kay,36 Rosecrans Ave.,,Toledo,OH,56790,USA,Missouri Office
Jeff,Kay,37 B Industrial East,,Toledo,OH,34579,USA,Missouri Office
Tom,Kay,38 Jack Street,,Toledo,OH,87690,USA,Missouri Office
Steve,Husson,39 Samuel Road,,Landisville,PA,17538,USA,Philly Office
Bill,Arvold,40 William Lane,Suite 340,Golden Valley,MN,55426,USA,Chicago Office
